STARLINK-35632          
1 66129U 25237R   26068.19873895  .00026667  00000+0  90965-3 0  9993
2 66129  53.1611  42.0282 0001065 112.3321 247.7793 15.30186129 22533
KUIPER-00226            
1 67785U 26030X   26068.62629313  .00046834  00000+0  15530-2 0  9998
2 67785  51.8814 220.1252 0017713  64.2781 296.0030 15.30655594  5078
